{"fetched_at":"2026-07-13T18:16:29.920Z","source":"https://celestrak.org/NORAD/elements/gp.php?GROUP=kuiper&FORMAT=JSON","constellation":"kuiper","records":[{"OBJECT_NAME":"KUIPER-00060","OBJECT_ID":"2025-134W","EPOCH":"2026-07-12T22:41:23.124192","CLASSIFICATION_TYPE":"U","MEAN_MOTION":14.79928759,"ECCENTRICITY":0.00008343,"INCLINATION":51.9032,"RA_OF_ASC_NODE":26.7642,"ARG_OF_PERICENTER":140.6638,"MEAN_ANOMALY":219.4385,"EPHEMERIS_TYPE":0,"NORAD_CAT_ID":64520,"ELEMENT_SET_NO":999,"REV_AT_EPOCH":5878,"BSTAR":0.000045421619,"MEAN_MOTION_DOT":0.00000125,"MEAN_MOTION_DDOT":0},{"OBJECT_NAME":"KUIPER-00061","OBJECT_ID":"2025-134X","EPOCH":"2026-07-12T18:26:37.701888","CLASSIFICATION_TYPE":"U","MEAN_MOTION":14.79908696,"ECCENTRICITY":0.00008393,"INCLINATION":51.9022,"RA_OF_ASC_NODE":35.0014,"ARG_OF_PERICENTER":102.1345,"MEAN_ANOMALY":257.9712,"EPHEMERIS_TYPE":0,"NORAD_CAT_ID":64521,"ELEMENT_SET_NO":999,"REV_AT_EPOCH":5865,"BSTAR":0.00026233406,"MEAN_MOTION_DOT":0.00001778,"MEAN_MOTION_DDOT":0},{"OBJECT_NAME":"KUIPER-00062","OBJECT_ID":"2025-134Y","EPOCH":"2026-07-12T18:22:42.654144","CLASSIFICATION_TYPE":"U","MEAN_MOTION":14.7992472,"ECCENTRICITY":0.00006926,"INCLINATION":51.8972,"RA_OF_ASC_NODE":37.4878,"ARG_OF_PERICENTER":127.3922,"MEAN_ANOMALY":232.7103,"EPHEMERIS_TYPE":0,"NORAD_CAT_ID":64522,"ELEMENT_SET_NO":999,"REV_AT_EPOCH":5863,"BSTAR":0.0002504441,"MEAN_MOTION_DOT":0.00001688,"MEAN_MOTION_DDOT":0},{"OBJECT_NAME":"KUIPER-00063","OBJECT_ID":"2025-134Z","EPOCH":"2026-07-12T23:02:49.042176","CLASSIFICATION_TYPE":"U","MEAN_MOTION":14.7993105,"ECCENTRICITY":0.0000771,"INCLINATION":51.9033,"RA_OF_ASC_NODE":44.1839,"ARG_OF_PERICENTER":112.0289,"MEAN_ANOMALY":248.0755,"EPHEMERIS_TYPE":0,"NORAD_CAT_ID":64523,"ELEMENT_SET_NO":999,"REV_AT_EPOCH":5855,"BSTAR":0.00021870212,"MEAN_MOTION_DOT":0.00001446,"MEAN_MOTION_DDOT":0},{"OBJECT_NAME":"KUIPER-00064","OBJECT_ID":"2025-134AA","EPOCH":"2026-07-12T23:06:41.185152","CLASSIFICATION_TYPE":"U","MEAN_MOTION":14.79928358,"ECCENTRICITY":0.00007437,"INCLINATION":51.9028,"RA_OF_ASC_NODE":41.5958,"ARG_OF_PERICENTER":115.7066,"MEAN_ANOMALY":244.3973,"EPHEMERIS_TYPE":0,"NORAD_CAT_ID":64524,"ELEMENT_SET_NO":999,"REV_AT_EPOCH":5859,"BSTAR":0.0001745389,"MEAN_MOTION_DOT":0.00001109,"MEAN_MOTION_DDOT":0},{"OBJECT_NAME":"KUIPER-00065","OBJECT_ID":"2025-134AB","EPOCH":"2026-07-13T00:36:11.673504","CLASSIFICATION_TYPE":"U","MEAN_MOTION":14.79930833,"ECCENTRICITY":0.00009251,"INCLINATION":51.9033,"RA_OF_ASC_NODE":46.4912,"ARG_OF_PERICENTER":106.8904,"MEAN_ANOMALY":253.216,"EPHEMERIS_TYPE":0,"NORAD_CAT_ID":64525,"ELEMENT_SET_NO":999,"REV_AT_EPOCH":5851,"BSTAR":-0.000060945143,"MEAN_MOTION_DOT":-0.00000686,"MEAN_MOTION_DDOT":0},{"OBJECT_NAME":"KUIPER-00066","OBJECT_ID":"2025-134AC","EPOCH":"2026-07-12T20:32:52.581696","CLASSIFICATION_TYPE":"U","MEAN_MOTION":14.79933393,"ECCENTRICITY":0.00004653,"INCLINATION":51.9025,"RA_OF_ASC_NODE":344.5174,"ARG_OF_PERICENTER":97.8004,"MEAN_ANOMALY":262.3011,"EPHEMERIS_TYPE":0,"NORAD_CAT_ID":64526,"ELEMENT_SET_NO":999,"REV_AT_EPOCH":5938,"BSTAR":0.000057695076,"MEAN_MOTION_DOT":0.00000219,"MEAN_MOTION_DDOT":0},{"OBJECT_NAME":"KUIPER-00069","OBJECT_ID":"2025-151A","EPOCH":"2026-07-13T02:48:32.449536","CLASSIFICATION_TYPE":"U","MEAN_MOTION":14.79930605,"ECCENTRICITY":0.00006773,"INCLINATION":51.9027,"RA_OF_ASC_NODE":86.0038,"ARG_OF_PERICENTER":101.0213,"MEAN_ANOMALY":259.0825,"EPHEMERIS_TYPE":0,"NORAD_CAT_ID":64816,"ELEMENT_SET_NO":999,"REV_AT_EPOCH":5533,"BSTAR":0.000013705871,"MEAN_MOTION_DOT":-0.00000117,"MEAN_MOTION_DDOT":0},{"OBJECT_NAME":"KUIPER-00070","OBJECT_ID":"2025-151B","EPOCH":"2026-07-12T22:06:34.822368","CLASSIFICATION_TYPE":"U","MEAN_MOTION":14.79944612,"ECCENTRICITY":0.00008922,"INCLINATION":51.8999,"RA_OF_ASC_NODE":111.7811,"ARG_OF_PERICENTER":89.646,"MEAN_ANOMALY":270.4605,"EPHEMERIS_TYPE":0,"NORAD_CAT_ID":64817,"ELEMENT_SET_NO":999,"REV_AT_EPOCH":5496,"BSTAR":0.00030223476,"MEAN_MOTION_DOT":0.00002084,"MEAN_MOTION_DDOT":0},{"OBJECT_NAME":"KUIPER-00071","OBJECT_ID":"2025-151C","EPOCH":"2026-07-13T03:02:13.273728","CLASSIFICATION_TYPE":"U","MEAN_MOTION":14.79926451,"ECCENTRICITY":0.00009357,"INCLINATION":51.9006,"RA_OF_ASC_NODE":108.4125,"ARG_OF_PERICENTER":99.1902,"MEAN_ANOMALY":260.9167,"EPHEMERIS_TYPE":0,"NORAD_CAT_ID":64818,"ELEMENT_SET_NO":999,"REV_AT_EPOCH":5384,"BSTAR":0.00028863909,"MEAN_MOTION_DOT":0.00001979,"MEAN_MOTION_DDOT":0},{"OBJECT_NAME":"KUIPER-00072","OBJECT_ID":"2025-151D","EPOCH":"2026-07-12T23:30:10.035648","CLASSIFICATION_TYPE":"U","MEAN_MOTION":14.7993485,"ECCENTRICITY":0.00011098,"INCLINATION":51.8983,"RA_OF_ASC_NODE":89.0087,"ARG_OF_PERICENTER":70.5266,"MEAN_ANOMALY":289.5816,"EPHEMERIS_TYPE":0,"NORAD_CAT_ID":64819,"ELEMENT_SET_NO":999,"REV_AT_EPOCH":5410,"BSTAR":0.00029025236,"MEAN_MOTION_DOT":0.00001992,"MEAN_MOTION_DDOT":0},{"OBJECT_NAME":"KUIPER-00073","OBJECT_ID":"2025-151E","EPOCH":"2026-07-13T03:50:49.170048","CLASSIFICATION_TYPE":"U","MEAN_MOTION":14.79931885,"ECCENTRICITY":0.00011893,"INCLINATION":51.9031,"RA_OF_ASC_NODE":108.2449,"ARG_OF_PERICENTER":89.3802,"MEAN_ANOMALY":270.7296,"EPHEMERIS_TYPE":0,"NORAD_CAT_ID":64820,"ELEMENT_SET_NO":999,"REV_AT_EPOCH":5503,"BSTAR":0.000099372892,"MEAN_MOTION_DOT":0.00000536,"MEAN_MOTION_DDOT":0},{"OBJECT_NAME":"KUIPER-00074","OBJECT_ID":"2025-151F","EPOCH":"2026-07-13T07:11:46.360032","CLASSIFICATION_TYPE":"U","MEAN_MOTION":16.0067649,"ECCENTRICITY":0.00039237,"INCLINATION":51.8754,"RA_OF_ASC_NODE":7.8017,"ARG_OF_PERICENTER":269.0856,"MEAN_ANOMALY":90.9708,"EPHEMERIS_TYPE":0,"NORAD_CAT_ID":64821,"ELEMENT_SET_NO":999,"REV_AT_EPOCH":5524,"BSTAR":0.00057887615,"MEAN_MOTION_DOT":0.00313887,"MEAN_MOTION_DDOT":0.000052997063},{"OBJECT_NAME":"KUIPER-00075","OBJECT_ID":"2025-151G","EPOCH":"2026-07-12T20:48:41.585472","CLASSIFICATION_TYPE":"U","MEAN_MOTION":15.45360056,"ECCENTRICITY":0.00036987,"INCLINATION":51.8665,"RA_OF_ASC_NODE":330.7982,"ARG_OF_PERICENTER":7.6827,"MEAN_ANOMALY":352.4219,"EPHEMERIS_TYPE":0,"NORAD_CAT_ID":64822,"ELEMENT_SET_NO":999,"REV_AT_EPOCH":5573,"BSTAR":0.0005604941,"MEAN_MOTION_DOT":0.00026878,"MEAN_MOTION_DDOT":0},{"OBJECT_NAME":"KUIPER-00076","OBJECT_ID":"2025-151H","EPOCH":"2026-07-13T02:29:06.508320","CLASSIFICATION_TYPE":"U","MEAN_MOTION":14.79944624,"ECCENTRICITY":0.00008065,"INCLINATION":51.9,"RA_OF_ASC_NODE":98.5173,"ARG_OF_PERICENTER":97.6946,"MEAN_ANOMALY":262.4108,"EPHEMERIS_TYPE":0,"NORAD_CAT_ID":64823,"ELEMENT_SET_NO":999,"REV_AT_EPOCH":5398,"BSTAR":0.0003285942,"MEAN_MOTION_DOT":0.00002285,"MEAN_MOTION_DDOT":0},{"OBJECT_NAME":"KUIPER-00077","OBJECT_ID":"2025-151J","EPOCH":"2026-07-13T02:21:21.037824","CLASSIFICATION_TYPE":"U","MEAN_MOTION":14.79944296,"ECCENTRICITY":0.00008389,"INCLINATION":51.9002,"RA_OF_ASC_NODE":103.5594,"ARG_OF_PERICENTER":98.4089,"MEAN_ANOMALY":261.6969,"EPHEMERIS_TYPE":0,"NORAD_CAT_ID":64824,"ELEMENT_SET_NO":999,"REV_AT_EPOCH":5391,"BSTAR":0.00032452564,"MEAN_MOTION_DOT":0.00002254,"MEAN_MOTION_DDOT":0},{"OBJECT_NAME":"KUIPER-00078","OBJECT_ID":"2025-151K","EPOCH":"2026-07-12T23:59:21.262560","CLASSIFICATION_TYPE":"U","MEAN_MOTION":14.79936572,"ECCENTRICITY":0.00008072,"INCLINATION":51.9006,"RA_OF_ASC_NODE":101.4734,"ARG_OF_PERICENTER":105.9596,"MEAN_ANOMALY":254.1456,"EPHEMERIS_TYPE":0,"NORAD_CAT_ID":64825,"ELEMENT_SET_NO":999,"REV_AT_EPOCH":5393,"BSTAR":0.00030072299,"MEAN_MOTION_DOT":0.00002072,"MEAN_MOTION_DDOT":0},{"OBJECT_NAME":"KUIPER-00079","OBJECT_ID":"2025-151L","EPOCH":"2026-07-13T03:54:41.115168","CLASSIFICATION_TYPE":"U","MEAN_MOTION":14.79923844,"ECCENTRICITY":0.00005836,"INCLINATION":51.8999,"RA_OF_ASC_NODE":105.7112,"ARG_OF_PERICENTER":113.1531,"MEAN_ANOMALY":246.9493,"EPHEMERIS_TYPE":0,"NORAD_CAT_ID":64826,"ELEMENT_SET_NO":999,"REV_AT_EPOCH":5508,"BSTAR":0.00023204513,"MEAN_MOTION_DOT":0.00001548,"MEAN_MOTION_DDOT":0},{"OBJECT_NAME":"KUIPER-00080","OBJECT_ID":"2025-151M","EPOCH":"2026-07-13T03:06:04.441248","CLASSIFICATION_TYPE":"U","MEAN_MOTION":14.79945862,"ECCENTRICITY":0.00008324,"INCLINATION":51.8998,"RA_OF_ASC_NODE":105.8706,"ARG_OF_PERICENTER":102.184,"MEAN_ANOMALY":257.9215,"EPHEMERIS_TYPE":0,"NORAD_CAT_ID":64827,"ELEMENT_SET_NO":999,"REV_AT_EPOCH":5388,"BSTAR":0.00030592591,"MEAN_MOTION_DOT":0.00002112,"MEAN_MOTION_DDOT":0},{"OBJECT_NAME":"KUIPER-00082","OBJECT_ID":"2025-151N","EPOCH":"2026-07-12T21:45:09.230112","CLASSIFICATION_TYPE":"U","MEAN_MOTION":14.79941478,"ECCENTRICITY":0.0000907,"INCLINATION":51.9007,"RA_OF_ASC_NODE":94.4081,"ARG_OF_PERICENTER":102.7122,"MEAN_ANOMALY":257.3941,"EPHEMERIS_TYPE":0,"NORAD_CAT_ID":64828,"ELEMENT_SET_NO":999,"REV_AT_EPOCH":5402,"BSTAR":0.00030031321,"MEAN_MOTION_DOT":0.00002069,"MEAN_MOTION_DDOT":0},{"OBJECT_NAME":"KUIPER-00083","OBJECT_ID":"2025-151P","EPOCH":"2026-07-13T04:02:28.412160","CLASSIFICATION_TYPE":"U","MEAN_MOTION":14.79930139,"ECCENTRICITY":0.00007346,"INCLINATION":51.9011,"RA_OF_ASC_NODE":100.7344,"ARG_OF_PERICENTER":101.9545,"MEAN_ANOMALY":258.15,"EPHEMERIS_TYPE":0,"NORAD_CAT_ID":64829,"ELEMENT_SET_NO":999,"REV_AT_EPOCH":5514,"BSTAR":-0.000011926252,"MEAN_MOTION_DOT":-0.00000312,"MEAN_MOTION_DDOT":0},{"OBJECT_NAME":"KUIPER-00084","OBJECT_ID":"2025-151Q","EPOCH":"2026-07-13T03:46:56.326368","CLASSIFICATION_TYPE":"U","MEAN_MOTION":14.79942146,"ECCENTRICITY":0.00010122,"INCLINATION":51.9021,"RA_OF_ASC_NODE":110.7662,"ARG_OF_PERICENTER":89.2288,"MEAN_ANOMALY":270.879,"EPHEMERIS_TYPE":0,"NORAD_CAT_ID":64830,"ELEMENT_SET_NO":999,"REV_AT_EPOCH":5381,"BSTAR":0.00027822848,"MEAN_MOTION_DOT":0.00001901,"MEAN_MOTION_DDOT":0},{"OBJECT_NAME":"KUIPER-00085","OBJECT_ID":"2025-151R","EPOCH":"2026-07-13T01:48:15.826752","CLASSIFICATION_TYPE":"U","MEAN_MOTION":14.79944329,"ECCENTRICITY":0.00008793,"INCLINATION":51.9029,"RA_OF_ASC_NODE":93.7093,"ARG_OF_PERICENTER":107.9237,"MEAN_ANOMALY":252.1821,"EPHEMERIS_TYPE":0,"NORAD_CAT_ID":64831,"ELEMENT_SET_NO":999,"REV_AT_EPOCH":5404,"BSTAR":0.00028069955,"MEAN_MOTION_DOT":0.0000192,"MEAN_MOTION_DDOT":0}]}
